ORBCOMM FM05            
1 25117U 97084F   25239.72225299  .00001661  00000+0  50076-3 0  9997
2 25117  45.0162  24.5390 0003443 204.1051 155.9640 14.46121949450961
ORBCOMM FM06            
1 25118U 97084G   25239.80420706  .00001572  00000+0  47487-3 0  9990
2 25118  45.0154  23.8038 0002444 199.6585 304.5582 14.46263440451897
ORBCOMM FM07            
1 25119U 97084H   25239.78990618  .00001724  00000+0  51663-3 0  9992
2 25119  45.0150  24.6377 0004312 203.0688 156.9971 14.46270569451889
ORBCOMM FM03            
1 25158U 98007B   25239.87793372  .00001160  00000+0  45146-3 0  9992
2 25158 107.9668 282.8954 0043501 125.2884 235.2336 14.34637708434324
ORBCOMM FM04            
1 25159U 98007C   25239.91957447  .00001121  00000+0  43667-3 0  9996
2 25159 107.9653 286.2505 0039208 122.7136 237.7794 14.34882357434518
ORBCOMM FM17            
1 25413U 98046A   25239.82019877  .00000798  00000+0  32533-3 0  9997
2 25413  44.9940 279.5072 0004778 233.8495 126.1910 14.35205654413462
ORBCOMM FM18            
1 25414U 98046B   25239.94599408  .00001590  00000+0  55924-3 0  9994
2 25414  44.9919 194.3825 0006632 294.4051  65.6105 14.38704205414587
ORBCOMM FM19            
1 25415U 98046C   25239.91170013  .00001562  00000+0  55229-3 0  9996
2 25415  44.9929 196.6563 0005391 292.4267 116.2131 14.38516152414530
